[{"OBJECT_NAME":"BUFENG 1A","OBJECT_ID":"2019-032A","EPOCH":"2026-03-09T22:03:27.507168","MEAN_MOTION":15.26012088,"ECCENTRICITY":0.00054719,"INCLINATION":44.9758,"RA_OF_ASC_NODE":238.6688,"ARG_OF_PERICENTER":55.4463,"MEAN_ANOMALY":304.6935,"EPHEMERIS_TYPE":0,"CLASSIFICATION_TYPE":"U","NORAD_CAT_ID":44310,"ELEMENT_SET_NO":999,"REV_AT_EPOCH":37201,"BSTAR":0.00062413703,"MEAN_MOTION_DOT":0.00016103,"MEAN_MOTION_DDOT":0},{"OBJECT_NAME":"STARLINK-30349","OBJECT_ID":"2023-129R","EPOCH":"2026-03-09T22:00:01.999584","MEAN_MOTION":15.26741931,"ECCENTRICITY":0.00012812,"INCLINATION":43,"RA_OF_ASC_NODE":116.7269,"ARG_OF_PERICENTER":260.7577,"MEAN_ANOMALY":184.0339,"EPHEMERIS_TYPE":0,"CLASSIFICATION_TYPE":"U","NORAD_CAT_ID":57713,"ELEMENT_SET_NO":999,"REV_AT_EPOCH":567,"BSTAR":0.00020725572,"MEAN_MOTION_DOT":5.304e-5,"MEAN_MOTION_DDOT":0}]
